{"type": "FeatureCollection", "features": [ {"type": "Feature", "properties": {"norad_id": 34736, "name": "COSMOS 2251 DEB", "group": "cosmos-2251-debris", "lat": -53.23751737046532, "lon": 13.926017020850765, "alt_km": 422.0748116435152, "timestamp": "2025-12-12T14:39:18.327601+00:00", "meta": {"OBJECT_NAME": "COSMOS 2251 DEB", "OBJECT_ID": "1993-036ZE", "EPOCH": "2025-12-12T04:02:07.944864", "MEAN_MOTION": 15.47101269, "ECCENTRICITY": 0.00171231, "INCLINATION": 74.0014, "RA_OF_ASC_NODE": 37.48, "ARG_OF_PERICENTER": 347.7208, "MEAN_ANOMALY": 12.3583, "EPHEMERIS_TYPE": 0, "CLASSIFICATION_TYPE": "U", "NORAD_CAT_ID": 34736, "ELEMENT_SET_NO": 999, "REV_AT_EPOCH": 88439, "BSTAR": 0.0092924803, "MEAN_MOTION_DOT": 0.00504732, "MEAN_MOTION_DDOT": 0}, "tle": {"line1": "1 34736U 93036ZE  25346.16814751  .00504732  00000+0  92925-2 0  9996", "line2": "2 34736  74.0014  37.4800 0017123 347.7208  12.3583 15.47101269884398"}}, "geometry": {"type": "Point", "coordinates": [13.926017020850765, -53.23751737046532]}}, {"type": "Feature", "properties": {"norad_id": 34738, "name": "COSMOS 2251 DEB", "group": "cosmos-2251-debris", "lat": -68.7396300257793, "lon": 10.963456871124775, "alt_km": 716.6643469355104, "timestamp": "2025-12-12T14:39:18.327610+00:00", "meta": {"OBJECT_NAME": "COSMOS 2251 DEB", "OBJECT_ID": "1993-036ZG", "EPOCH": "2025-12-11T21:26:26.743776", "MEAN_MOTION": 14.4629911, "ECCENTRICITY": 0.0047366, "INCLINATION": 74.0143, "RA_OF_ASC_NODE": 144.8478, "ARG_OF_PERICENTER": 291.2709, "MEAN_ANOMALY": 191.7581, "EPHEMERIS_TYPE": 0, "CLASSIFICATION_TYPE": "U", "NORAD_CAT_ID": 34738, "ELEMENT_SET_NO": 999, "REV_AT_EPOCH": 87846, "BSTAR": 0.00050573, "MEAN_MOTION_DOT": 1.81e-05, "MEAN_MOTION_DDOT": 0}, "tle": {"line1": "1 34738U 93036ZG  25345.89336509  .00001810  00000+0  50573-3 0  9990", "line2": "2 34738  74.0143 144.8478 0047366 291.2709 191.7581 14.46299110878460"}}, "geometry": {"type": "Point", "coordinates": [10.963456871124775, -68.7396300257793]}}, {"type": "Feature", "properties": {"norad_id": 34750, "name": "COSMOS 2251 DEB", "group": "cosmos-2251-debris", "lat": 44.10103565889794, "lon": -141.9757178740235, "alt_km": 693.5749294152711, "timestamp": "2025-12-12T14:39:18.327619+00:00", "meta": {"OBJECT_NAME": "COSMOS 2251 DEB", "OBJECT_ID": "1993-036ZU", "EPOCH": "2025-12-12T02:01:08.679936", "MEAN_MOTION": 14.61312252, "ECCENTRICITY": 0.00388523, "INCLINATION": 74.1082, "RA_OF_ASC_NODE": 202.9993, "ARG_OF_PERICENTER": 156.3211, "MEAN_ANOMALY": 1.8933, "EPHEMERIS_TYPE": 0, "CLASSIFICATION_TYPE": "U", "NORAD_CAT_ID": 34750, "ELEMENT_SET_NO": 999, "REV_AT_EPOCH": 88221, "BSTAR": 0.0016476753, "MEAN_MOTION_DOT": 8.205e-05, "MEAN_MOTION_DDOT": 0}, "tle": {"line1": "1 34750U 93036ZU  25346.08412824  .00008205  00000+0  16477-2 0  9990", "line2": "2 34750  74.1082 202.9993 0038852 156.3211   1.8933 14.61312252882214"}}, "geometry": {"type": "Point", "coordinates": [-141.9757178740235, 44.10103565889794]}}, {"type": "Feature", "properties": {"norad_id": 34752, "name": "COSMOS 2251 DEB", "group": "cosmos-2251-debris", "lat": 9.291238601433271, "lon": 178.18002183751412, "alt_km": 543.3326201011778, "timestamp": "2025-12-12T14:39:18.327628+00:00", "meta": {"OBJECT_NAME": "COSMOS 2251 DEB", "OBJECT_ID": "1993-036ZW", "EPOCH": "2025-12-12T01:05:45.538080", "MEAN_MOTION": 14.9990229, "ECCENTRICITY": 0.00478297, "INCLINATION": 74.0136, "RA_OF_ASC_NODE": 2.0174, "ARG_OF_PERICENTER": 130.6788, "MEAN_ANOMALY": 229.8571, "EPHEMERIS_TYPE": 0, "CLASSIFICATION_TYPE": "U", "NORAD_CAT_ID": 34752, "ELEMENT_SET_NO": 999, "REV_AT_EPOCH": 89839, "BSTAR": 0.0013774782, "MEAN_MOTION_DOT": 0.0001751, "MEAN_MOTION_DDOT": 0}, "tle": {"line1": "1 34752U 93036ZW  25346.04566595  .00017510  00000+0  13775-2 0  9990", "line2": "2 34752  74.0136   2.0174 0047829 130.6788 229.8571 14.99902290898397"}}, "geometry": {"type": "Point", "coordinates": [178.18002183751412, 9.291238601433271]}}, {"type": "Feature", "properties": {"norad_id": 34754, "name": "COSMOS 2251 DEB", "group": "cosmos-2251-debris", "lat": 8.299783417669452, "lon": 45.447465144656974, "alt_km": 779.2922574548102, "timestamp": "2025-12-12T14:39:18.327636+00:00", "meta": {"OBJECT_NAME": "COSMOS 2251 DEB", "OBJECT_ID": "1993-036ZY", "EPOCH": "2025-12-12T02:53:28.307328", "MEAN_MOTION": 14.4048029, "ECCENTRICITY": 0.0029545, "INCLINATION": 74.0303, "RA_OF_ASC_NODE": 228.748, "ARG_OF_PERICENTER": 344.9646, "MEAN_ANOMALY": 165.5068, "EPHEMERIS_TYPE": 0, "CLASSIFICATION_TYPE": "U", "NORAD_CAT_ID": 34754, "ELEMENT_SET_NO": 999, "REV_AT_EPOCH": 88124, "BSTAR": 0.00031921533, "MEAN_MOTION_DOT": 9.94e-06, "MEAN_MOTION_DDOT": 0}, "tle": {"line1": "1 34754U 93036ZY  25346.12046652  .00000994  00000+0  31922-3 0  9991", "line2": "2 34754  74.0303 228.7480 0029545 344.9646 165.5068 14.40480290881240"}}, "geometry": {"type": "Point", "coordinates": [45.447465144656974, 8.299783417669452]}}, {"type": "Feature", "properties": {"norad_id": 34755, "name": "COSMOS 2251 DEB", "group": "cosmos-2251-debris", "lat": -36.036252188158755, "lon": -81.8747580523201, "alt_km": 778.343943321237, "timestamp": "2025-12-12T14:39:18.327646+00:00", "meta": {"OBJECT_NAME": "COSMOS 2251 DEB", "OBJECT_ID": "1993-036ZZ", "EPOCH": "2025-12-11T14:55:03.161568", "MEAN_MOTION": 13.50554631, "ECCENTRICITY": 0.04083101, "INCLINATION": 73.9258, "RA_OF_ASC_NODE": 291.8222, "ARG_OF_PERICENTER": 311.8419, "MEAN_ANOMALY": 242.47, "EPHEMERIS_TYPE": 0, "CLASSIFICATION_TYPE": "U", "NORAD_CAT_ID": 34755, "ELEMENT_SET_NO": 999, "REV_AT_EPOCH": 82508, "BSTAR": 0.0023536952, "MEAN_MOTION_DOT": 2.517e-05, "MEAN_MOTION_DDOT": 0}, "tle": {"line1": "1 34755U 93036ZZ  25345.62156437  .00002517  00000+0  23537-2 0  9994", "line2": "2 34755  73.9258 291.8222 0408310 311.8419 242.4700 13.50554631825084"}}, "geometry": {"type": "Point", "coordinates": [-81.8747580523201, -36.036252188158755]}}, {"type": "Feature", "properties": {"norad_id": 34756, "name": "COSMOS 2251 DEB", "group": "cosmos-2251-debris", "lat": -34.80245221770615, "lon": -63.91591661951527, "alt_km": 1152.0744869229839, "timestamp": "2025-12-12T14:39:18.327655+00:00", "meta": {"OBJECT_NAME": "COSMOS 2251 DEB", "OBJECT_ID": "1993-036AAA", "EPOCH": "2025-12-11T14:45:00.607104", "MEAN_MOTION": 13.67238778, "ECCENTRICITY": 0.03449804, "INCLINATION": 74.0026, "RA_OF_ASC_NODE": 106.2197, "ARG_OF_PERICENTER": 342.2771, "MEAN_ANOMALY": 16.6544, "EPHEMERIS_TYPE": 0, "CLASSIFICATION_TYPE": "U", "NORAD_CAT_ID": 34756, "ELEMENT_SET_NO": 999, "REV_AT_EPOCH": 83406, "BSTAR": 0.0012772103, "MEAN_MOTION_DOT": 1.595e-05, "MEAN_MOTION_DDOT": 0}, "tle": {"line1": "1 34756U 93036AAA 25345.61459036  .00001595  00000+0  12772-2 0  9999", "line2": "2 34756  74.0026 106.2197 0344980 342.2771  16.6544 13.67238778834065"}}, "geometry": {"type": "Point", "coordinates": [-63.91591661951527, -34.80245221770615]}}, {"type": "Feature", "properties": {"norad_id": 34758, "name": "COSMOS 2251 DEB", "group": "cosmos-2251-debris", "lat": -26.85919370964577, "lon": -68.58995596000723, "alt_km": 1044.0845994535075, "timestamp": "2025-12-12T14:39:18.327665+00:00", "meta": {"OBJECT_NAME": "COSMOS 2251 DEB", "OBJECT_ID": "1993-036AAC", "EPOCH": "2025-12-11T06:58:07.203360", "MEAN_MOTION": 13.580618, "ECCENTRICITY": 0.03811247, "INCLINATION": 74.1076, "RA_OF_ASC_NODE": 301.8294, "ARG_OF_PERICENTER": 65.8978, "MEAN_ANOMALY": 298.1504, "EPHEMERIS_TYPE": 0, "CLASSIFICATION_TYPE": "U", "NORAD_CAT_ID": 34758, "ELEMENT_SET_NO": 999, "REV_AT_EPOCH": 82890, "BSTAR": 0.0018686561, "MEAN_MOTION_DOT": 2.154e-05, "MEAN_MOTION_DDOT": 0}, "tle": {"line1": "1 34758U 93036AAC 25345.29036115  .00002154  00000+0  18687-2 0  9997", "line2": "2 34758  74.1076 301.8294 0381124  65.8978 298.1504 13.58061800828901"}}, "geometry": {"type": "Point", "coordinates": [-68.58995596000723, -26.85919370964577]}}, {"type": "Feature", "properties": {"norad_id": 34760, "name": "COSMOS 2251 DEB", "group": "cosmos-2251-debris", "lat": -17.09610149697422, "lon": 127.63218052894766, "alt_km": 895.4194680137362, "timestamp": "2025-12-12T14:39:18.327674+00:00", "meta": {"OBJECT_NAME": "COSMOS 2251 DEB", "OBJECT_ID": "1993-036AAE", "EPOCH": "2025-12-11T20:57:04.029120", "MEAN_MOTION": 14.19565488, "ECCENTRICITY": 0.0096741, "INCLINATION": 74.0637, "RA_OF_ASC_NODE": 303.9064, "ARG_OF_PERICENTER": 356.2172, "MEAN_ANOMALY": 33.6085, "EPHEMERIS_TYPE": 0, "CLASSIFICATION_TYPE": "U", "NORAD_CAT_ID": 34760, "ELEMENT_SET_NO": 999, "REV_AT_EPOCH": 86676, "BSTAR": 0.0010971, "MEAN_MOTION_DOT": 2.4e-05, "MEAN_MOTION_DDOT": 0}, "tle": {"line1": "1 34760U 93036AAE 25345.87296330  .00002400  00000+0  10971-2 0  9993", "line2": "2 34760  74.0637 303.9064 0096741 356.2172  33.6085 14.19565488866766"}}, "geometry": {"type": "Point", "coordinates": [127.63218052894766, -17.09610149697422]}}, {"type": "Feature", "properties": {"norad_id": 34761, "name": "COSMOS 2251 DEB", "group": "cosmos-2251-debris", "lat": 64.63568407204066, "lon": 145.8680717115972, "alt_km": 750.4981595255313, "timestamp": "2025-12-12T14:39:18.327683+00:00", "meta": {"OBJECT_NAME": "COSMOS 2251 DEB", "OBJECT_ID": "1993-036AAF", "EPOCH": "2025-12-12T07:28:13.558656", "MEAN_MOTION": 14.38046835, "ECCENTRICITY": 0.00363795, "INCLINATION": 74.0297, "RA_OF_ASC_NODE": 3.581, "ARG_OF_PERICENTER": 37.8056, "MEAN_ANOMALY": 322.5642, "EPHEMERIS_TYPE": 0, "CLASSIFICATION_TYPE": "U", "NORAD_CAT_ID": 34761, "ELEMENT_SET_NO": 999, "REV_AT_EPOCH": 87643, "BSTAR": 0.00091922509, "MEAN_MOTION_DOT": 2.779e-05, "MEAN_MOTION_DDOT": 0}, "tle": {"line1": "1 34761U 93036AAF 25346.31126804  .00002779  00000+0  91923-3 0  9998", "line2": "2 34761  74.0297   3.5810 0036379  37.8056 322.5642 14.38046835876430"}}, "geometry": {"type": "Point", "coordinates": [145.8680717115972, 64.63568407204066]}}]}